[{"OBJECT_NAME":"ICEYE-X57","OBJECT_ID":"2025-135BC","EPOCH":"2026-03-09T22:18:00.647424","MEAN_MOTION":15.00870088,"ECCENTRICITY":0.00021914,"INCLINATION":97.7623,"RA_OF_ASC_NODE":185.2979,"ARG_OF_PERICENTER":76.2741,"MEAN_ANOMALY":283.8727,"EPHEMERIS_TYPE":0,"CLASSIFICATION_TYPE":"U","NORAD_CAT_ID":64578,"ELEMENT_SET_NO":999,"REV_AT_EPOCH":3913,"BSTAR":0.00060837081,"MEAN_MOTION_DOT":7.683e-5,"MEAN_MOTION_DDOT":0},{"OBJECT_NAME":"COSMOS 397 DEB","OBJECT_ID":"1971-015U","EPOCH":"2026-03-09T13:29:42.554976","MEAN_MOTION":14.46444927,"ECCENTRICITY":0.0335899,"INCLINATION":65.6875,"RA_OF_ASC_NODE":135.6369,"ARG_OF_PERICENTER":212.43,"MEAN_ANOMALY":145.5762,"EPHEMERIS_TYPE":0,"CLASSIFICATION_TYPE":"U","NORAD_CAT_ID":5094,"ELEMENT_SET_NO":999,"REV_AT_EPOCH":67470,"BSTAR":0.0028972,"MEAN_MOTION_DOT":0.00021188,"MEAN_MOTION_DDOT":0}]
